CCSDS_OMM_VERS = 2.0
CREATION_DATE  = 
ORIGINATOR     = 

OBJECT_NAME    = STARLINK-36434
OBJECT_ID      = 2026-002T
CENTER_NAME    = EARTH
REF_FRAME      = TEME
TIME_SYSTEM    = UTC
MEAN_ELEMENT_THEORY = SGP/SGP4

EPOCH          = 2026-01-09T19:11:53.526912
MEAN_MOTION    = 16.05103862
ECCENTRICITY   = .0010929
INCLINATION    = 42.9999
RA_OF_ASC_NODE = 308.2929
ARG_OF_PERICENTER = 259.3875
MEAN_ANOMALY   = 100.5775

EPHEMERIS_TYPE = 0
CLASSIFICATION_TYPE = U
NORAD_CAT_ID   = 67322
ELEMENT_SET_NO = 999
REV_AT_EPOCH   = 195
BSTAR          = .57183E-2
MEAN_MOTION_DOT = .3483646E-1
MEAN_MOTION_DDOT = .16511E-1

CCSDS_OMM_VERS = 2.0
CREATION_DATE  = 
ORIGINATOR     = 

OBJECT_NAME    = STARLINK-36497
OBJECT_ID      = 2026-002U
CENTER_NAME    = EARTH
REF_FRAME      = TEME
TIME_SYSTEM    = UTC
MEAN_ELEMENT_THEORY = SGP/SGP4

EPOCH          = 2026-01-09T20:00:00.999360
MEAN_MOTION    = 16.02794597
ECCENTRICITY   = .0001771
INCLINATION    = 42.9998
RA_OF_ASC_NODE = 308.0794
ARG_OF_PERICENTER = 256.7924
MEAN_ANOMALY   = 297.4934

EPHEMERIS_TYPE = 0
CLASSIFICATION_TYPE = U
NORAD_CAT_ID   = 67323
ELEMENT_SET_NO = 999
REV_AT_EPOCH   = 201
BSTAR          = -.18977E-2
MEAN_MOTION_DOT = -.1189454E-1
MEAN_MOTION_DDOT = .4641E-3

CCSDS_OMM_VERS = 2.0
CREATION_DATE  = 
ORIGINATOR     = 

OBJECT_NAME    = STARLINK-36471
OBJECT_ID      = 2026-002V
CENTER_NAME    = EARTH
REF_FRAME      = TEME
TIME_SYSTEM    = UTC
MEAN_ELEMENT_THEORY = SGP/SGP4

EPOCH          = 2026-01-09T20:00:00.999360
MEAN_MOTION    = 16.03061867
ECCENTRICITY   = .0001814
INCLINATION    = 43.0000
RA_OF_ASC_NODE = 308.0721
ARG_OF_PERICENTER = 260.0836
MEAN_ANOMALY   = 297.1174

EPHEMERIS_TYPE = 0
CLASSIFICATION_TYPE = U
NORAD_CAT_ID   = 67324
ELEMENT_SET_NO = 999
REV_AT_EPOCH   = 195
BSTAR          = -.19222E-2
MEAN_MOTION_DOT = -.1223765E-1
MEAN_MOTION_DDOT = .49032E-3

CCSDS_OMM_VERS = 2.0
CREATION_DATE  = 
ORIGINATOR     = 

OBJECT_NAME    = STARLINK-36473
OBJECT_ID      = 2026-002W
CENTER_NAME    = EARTH
REF_FRAME      = TEME
TIME_SYSTEM    = UTC
MEAN_ELEMENT_THEORY = SGP/SGP4

EPOCH          = 2026-01-09T20:00:00.999360
MEAN_MOTION    = 16.02945775
ECCENTRICITY   = .0001764
INCLINATION    = 42.9999
RA_OF_ASC_NODE = 308.0755
ARG_OF_PERICENTER = 257.3683
MEAN_ANOMALY   = 298.4998

EPHEMERIS_TYPE = 0
CLASSIFICATION_TYPE = U
NORAD_CAT_ID   = 67325
ELEMENT_SET_NO = 999
REV_AT_EPOCH   = 211
BSTAR          = -.19202E-2
MEAN_MOTION_DOT = -.121414E-1
MEAN_MOTION_DDOT = .48267E-3

CCSDS_OMM_VERS = 2.0
CREATION_DATE  = 
ORIGINATOR     = 

OBJECT_NAME    = STARLINK-36430
OBJECT_ID      = 2026-002X
CENTER_NAME    = EARTH
REF_FRAME      = TEME
TIME_SYSTEM    = UTC
MEAN_ELEMENT_THEORY = SGP/SGP4

EPOCH          = 2026-01-09T20:00:00.999360
MEAN_MOTION    = 16.03303527
ECCENTRICITY   = .0001776
INCLINATION    = 43.0000
RA_OF_ASC_NODE = 308.0653
ARG_OF_PERICENTER = 253.5537
MEAN_ANOMALY   = 306.3643

EPHEMERIS_TYPE = 0
CLASSIFICATION_TYPE = U
NORAD_CAT_ID   = 67326
ELEMENT_SET_NO = 999
REV_AT_EPOCH   = 211
BSTAR          = -.19417E-2
MEAN_MOTION_DOT = -.1253829E-1
MEAN_MOTION_DDOT = .51398E-3

CCSDS_OMM_VERS = 2.0
CREATION_DATE  = 
ORIGINATOR     = 

OBJECT_NAME    = STARLINK-36501
OBJECT_ID      = 2026-002Y
CENTER_NAME    = EARTH
REF_FRAME      = TEME
TIME_SYSTEM    = UTC
MEAN_ELEMENT_THEORY = SGP/SGP4

EPOCH          = 2026-01-09T20:00:00.999360
MEAN_MOTION    = 16.03176620
ECCENTRICITY   = .000178
INCLINATION    = 42.9999
RA_OF_ASC_NODE = 308.0688
ARG_OF_PERICENTER = 254.4727
MEAN_ANOMALY   = 304.0355

EPHEMERIS_TYPE = 0
CLASSIFICATION_TYPE = U
NORAD_CAT_ID   = 67327
ELEMENT_SET_NO = 999
REV_AT_EPOCH   = 195
BSTAR          = -.19295E-2
MEAN_MOTION_DOT = -.1236706E-1
MEAN_MOTION_DDOT = .50049E-3

CCSDS_OMM_VERS = 2.0
CREATION_DATE  = 
ORIGINATOR     = 

OBJECT_NAME    = STARLINK-36489
OBJECT_ID      = 2026-002Z
CENTER_NAME    = EARTH
REF_FRAME      = TEME
TIME_SYSTEM    = UTC
MEAN_ELEMENT_THEORY = SGP/SGP4

EPOCH          = 2026-01-09T20:00:00.999360
MEAN_MOTION    = 16.03431195
ECCENTRICITY   = .0001774
INCLINATION    = 42.9997
RA_OF_ASC_NODE = 308.0611
ARG_OF_PERICENTER = 259.8027
MEAN_ANOMALY   = 301.6316

EPHEMERIS_TYPE = 0
CLASSIFICATION_TYPE = U
NORAD_CAT_ID   = 67328
ELEMENT_SET_NO = 999
REV_AT_EPOCH   = 211
BSTAR          = -.19135E-2
MEAN_MOTION_DOT = -.1245204E-1
MEAN_MOTION_DDOT = .50826E-3

CCSDS_OMM_VERS = 2.0
CREATION_DATE  = 
ORIGINATOR     = 

OBJECT_NAME    = STARLINK-36496
OBJECT_ID      = 2026-002AA
CENTER_NAME    = EARTH
REF_FRAME      = TEME
TIME_SYSTEM    = UTC
MEAN_ELEMENT_THEORY = SGP/SGP4

EPOCH          = 2026-01-09T20:00:00.999360
MEAN_MOTION    = 16.03638398
ECCENTRICITY   = .0001775
INCLINATION    = 42.9997
RA_OF_ASC_NODE = 308.0546
ARG_OF_PERICENTER = 256.6370
MEAN_ANOMALY   = 307.3330

EPHEMERIS_TYPE = 0
CLASSIFICATION_TYPE = U
NORAD_CAT_ID   = 67329
ELEMENT_SET_NO = 999
REV_AT_EPOCH   = 193
BSTAR          = -.18961E-2
MEAN_MOTION_DOT = -.1249321E-1
MEAN_MOTION_DDOT = .51254E-3

CCSDS_OMM_VERS = 2.0
CREATION_DATE  = 
ORIGINATOR     = 

OBJECT_NAME    = STARLINK-36483
OBJECT_ID      = 2026-002AB
CENTER_NAME    = EARTH
REF_FRAME      = TEME
TIME_SYSTEM    = UTC
MEAN_ELEMENT_THEORY = SGP/SGP4

EPOCH          = 2026-01-09T20:00:00.999360
MEAN_MOTION    = 16.03890478
ECCENTRICITY   = .0001757
INCLINATION    = 42.9996
RA_OF_ASC_NODE = 308.0455
ARG_OF_PERICENTER = 256.5125
MEAN_ANOMALY   = 311.0055

EPHEMERIS_TYPE = 0
CLASSIFICATION_TYPE = U
NORAD_CAT_ID   = 67330
ELEMENT_SET_NO = 999
REV_AT_EPOCH   = 211
BSTAR          = -.19051E-2
MEAN_MOTION_DOT = -.1274182E-1
MEAN_MOTION_DDOT = .53288E-3

CCSDS_OMM_VERS = 2.0
CREATION_DATE  = 
ORIGINATOR     = 

OBJECT_NAME    = STARLINK-36494
OBJECT_ID      = 2026-002AC
CENTER_NAME    = EARTH
REF_FRAME      = TEME
TIME_SYSTEM    = UTC
MEAN_ELEMENT_THEORY = SGP/SGP4

EPOCH          = 2026-01-09T20:00:00.999360
MEAN_MOTION    = 16.03540288
ECCENTRICITY   = .0001797
INCLINATION    = 42.9998
RA_OF_ASC_NODE = 308.0576
ARG_OF_PERICENTER = 256.6774
MEAN_ANOMALY   = 306.1017

EPHEMERIS_TYPE = 0
CLASSIFICATION_TYPE = U
NORAD_CAT_ID   = 67331
ELEMENT_SET_NO = 999
REV_AT_EPOCH   = 211
BSTAR          = -.19054E-2
MEAN_MOTION_DOT = -.1248059E-1
MEAN_MOTION_DDOT = .51102E-3

CCSDS_OMM_VERS = 2.0
CREATION_DATE  = 
ORIGINATOR     = 

OBJECT_NAME    = STARLINK-36492
OBJECT_ID      = 2026-002AD
CENTER_NAME    = EARTH
REF_FRAME      = TEME
TIME_SYSTEM    = UTC
MEAN_ELEMENT_THEORY = SGP/SGP4

EPOCH          = 2026-01-09T20:00:00.999360
MEAN_MOTION    = 16.03804068
ECCENTRICITY   = .0001802
INCLINATION    = 42.9996
RA_OF_ASC_NODE = 308.0478
ARG_OF_PERICENTER = 255.9585
MEAN_ANOMALY   = 310.5458

EPHEMERIS_TYPE = 0
CLASSIFICATION_TYPE = U
NORAD_CAT_ID   = 67332
ELEMENT_SET_NO = 999
REV_AT_EPOCH   = 211
BSTAR          = -.18804E-2
MEAN_MOTION_DOT = -.1251435E-1
MEAN_MOTION_DDOT = .51509E-3

CCSDS_OMM_VERS = 2.0
CREATION_DATE  = 
ORIGINATOR     = 

OBJECT_NAME    = STARLINK-36427
OBJECT_ID      = 2026-002AE
CENTER_NAME    = EARTH
REF_FRAME      = TEME
TIME_SYSTEM    = UTC
MEAN_ELEMENT_THEORY = SGP/SGP4

EPOCH          = 2026-01-09T20:00:00.999360
MEAN_MOTION    = 16.06300451
ECCENTRICITY   = .0002023
INCLINATION    = 42.9993
RA_OF_ASC_NODE = 308.0053
ARG_OF_PERICENTER = 256.4793
MEAN_ANOMALY   = 326.7172

EPHEMERIS_TYPE = 0
CLASSIFICATION_TYPE = U
NORAD_CAT_ID   = 67333
ELEMENT_SET_NO = 999
REV_AT_EPOCH   = 201
BSTAR          = -.83534E-3
MEAN_MOTION_DOT = -.652397E-2
MEAN_MOTION_DDOT = .16242E-3

